OBJECT_NAME,OBJECT_ID,EPOCH,MEAN_MOTION,ECCENTRICITY,INCLINATION,RA_OF_ASC_NODE,ARG_OF_PERICENTER,MEAN_ANOMALY,EPHEMERIS_TYPE,CLASSIFICATION_TYPE,NORAD_CAT_ID,ELEMENT_SET_NO,REV_AT_EPOCH,BSTAR,MEAN_MOTION_DOT,MEAN_MOTION_DDOT
CUTE-1 (CO-55),2003-031E,2026-07-17T05:50:49.834176,14.24352277,.00108618,98.6744,206.4251,97.4238,262.8176,0,U,27844,999,19595,.74994452E-4,.13E-5,0
CUBESAT XI-IV (CO-57),2003-031J,2026-07-16T23:11:08.374560,14.23635119,.00106004,98.6775,205.8397,114.7088,245.5195,0,U,27848,999,19561,.66478435E-4,.108E-5,0
CUBESAT XI-V,2005-043F,2026-07-16T23:00:13.930848,14.72704810,.00153115,98.3017,354.2118,110.0551,250.2305,0,U,28895,999,10613,.10708966E-3,.631E-5,0
CUTE-1.7+APD II (CO-65),2008-021C,2026-07-17T05:01:30.993600,15.09711390,.00068842,97.8298,180.2615,291.3226,68.7267,0,U,32785,999,98972,.14251837E-3,.223E-4,0
CANX-2,2008-021H,2026-07-16T22:14:54.670560,15.05811785,.00086064,97.8657,178.2901,311.2562,48.7922,0,U,32790,999,98928,.96949242E-4,.1341E-4,0
SEEDS II (CO-66),2008-021J,2026-07-16T23:03:13.998816,15.33703048,.00032737,97.7526,197.3035,152.6353,207.5061,0,U,32791,999,99185,.31007221E-3,.10024E-3,0
SWISSCUBE,2009-051B,2026-07-17T04:52:49.141920,14.62532837,.00079386,98.4005,106.6116,113.6742,246.5293,0,U,35932,999,89354,.98211383E-4,.449E-5,0
BEESAT-1,2009-051C,2026-07-16T16:20:27.870432,14.61763234,.00061862,98.3932,105.6536,125.9975,234.1800,0,U,35933,999,89349,.86615002E-4,.383E-5,0
ITUPSAT1,2009-051E,2026-07-17T04:15:10.956960,14.60480346,.00082048,98.4015,105.3171,137.6090,222.5745,0,U,35935,999,89311,.79458509E-4,.337E-5,0
TISAT 1,2010-035E,2026-07-17T06:54:01.816128,15.32780548,.00046303,98.0716,147.5354,116.0733,244.0984,0,U,36799,999,87231,.35664706E-3,.1121E-3,0
STRAND-1,2013-009E,2026-07-16T10:28:10.914816,14.37179260,.0009469,98.3935,16.9527,137.7246,222.4672,0,U,39090,999,70126,.51462E-4,.11E-5,0
BRITE-AUSTRIA,2013-009F,2026-07-16T22:47:05.464320,14.36552927,.00108579,98.4010,16.6507,145.7302,214.4587,0,U,39091,999,70132,.37190554E-4,.67E-6,0
NEE-01 PEGASO,2013-018B,2026-07-17T05:00:55.924704,14.93794403,.0013652,98.1260,343.3599,68.4727,291.7946,0,U,39151,999,71518,.13618845E-3,.1384E-4,0
POPACS 2,2013-055E,2026-07-16T18:14:56.683392,14.92059367,.04148069,80.9912,110.3288,98.8611,265.9796,0,U,39269,999,66762,.2434535E-3,.14928E-3,-.921223E-6
POPACS 3,2013-055F,2026-07-17T06:40:28.557984,14.56694907,.05485173,80.9999,196.5435,338.3110,19.5626,0,U,39270,999,64293,.18523176E-3,.7794E-4,0
ZACUBE-1 (TSHEPISOSAT),2013-066B,2026-07-16T22:25:12.715680,15.01333423,.00440899,97.8006,160.4171,149.6523,210.7268,0,U,39417,999,68519,.10162351E-3,.1271E-4,0
WNISAT-1,2013-066H,2026-07-16T15:37:50.064960,14.58121814,.01639591,97.7237,344.7215,138.7515,222.6209,0,U,39423,999,67102,.11160513E-3,.571E-5,0
TRITON-1,2013-066M,2026-07-17T05:04:05.721312,14.81800261,.00907014,97.8226,107.3325,135.5895,225.2638,0,U,39427,999,67853,.12548217E-3,.1007E-4,0
GOMX-1,2013-066Q,2026-07-17T06:46:02.259840,14.69545481,.01280422,97.6462,36.8453,341.4939,18.1632,0,U,39430,999,67433,.10384782E-3,.646E-5,0
CUBEBUG-2 (LO-74),2013-066AA,2026-07-17T06:30:55.280160,14.93975515,.00556156,97.8919,147.3840,288.3376,71.1800,0,U,39440,999,68148,.18925927E-3,.2015E-4,0
NEE-02 KRYSAOR,2013-066AB,2026-07-17T07:03:47.948544,14.86744048,.00652264,97.8897,137.2978,332.3487,27.4265,0,U,39441,999,68067,.12208443E-3,.1069E-4,0
FUNCUBE-1 (AO-73),2013-066AE,2026-07-16T21:11:52.011168,15.09830753,.00379408,97.8292,169.9592,102.2043,258.3439,0,U,39444,999,68414,.25213319E-3,.4077E-4,0
UWE-3,2013-066AG,2026-07-16T19:46:31.675008,14.97205791,.00475708,97.8716,154.1042,218.9248,140.8545,0,U,39446,999,68201,.17839666E-3,.2047E-4,0
BRITE-CA1 (TORONTO),2014-033L,2026-07-16T22:23:37.948704,14.72724463,.00785752,97.9774,326.3188,180.6925,179.4187,0,U,40020,999,64659,.83590365E-4,.506E-5,0
DUCHIFAT-1,2014-033M,2026-07-16T16:46:11.491104,15.71313651,.00027866,98.0414,261.1627,236.8489,123.2505,0,U,40021,999,66037,.77546207E-3,.99153E-3,0
NANOSATC-BR1,2014-033Q,2026-07-17T01:20:30.963552,15.32365382,.0005253,98.0704,233.1102,91.9307,268.2534,0,U,40024,999,65855,.32893482E-3,.10197E-3,0
QB50P1,2014-033R,2026-07-17T00:01:44.720256,15.18681576,.00104593,98.0964,211.2472,119.5295,240.6982,0,U,40025,999,65755,.20646572E-3,.4208E-4,0
QB50P2,2014-033Y,2026-07-17T06:38:53.656224,15.15522510,.00092668,98.0764,197.0406,78.0159,282.2110,0,U,40032,999,65722,.21521134E-3,.4006E-4,0
PERSEUS-M2,2014-033AD,2026-07-17T07:18:44.161920,14.95593448,.00109869,97.9986,149.4632,192.0245,168.0714,0,U,40037,999,65528,.47749488E-4,.469E-5,0
PERSEUS-M1,2014-033AF,2026-07-17T06:36:18.492192,14.95720181,.00110452,97.9655,142.9045,189.2551,170.8468,0,U,40039,999,65513,.83148487E-4,.866E-5,0
